CRE (WAAS/PRN 138)      
1 28868U 05036A   22288.54168255 -.00000074  00000+0  00000+0 0  9994
2 28868   0.8597  92.4308 0001756  80.7031 298.6322  1.00272651 62719
IOR-W (EGNOS/PRN 126)   
1 28899U 05044A   22288.47973227  .00000011  00000+0  00000+0 0  9992
2 28899   3.5947  38.3922 0003038 180.2204  42.0053  1.00272223 62050
QZS-1 (QZSS/PRN 183)    
1 37158U 10045A   22285.91327319 -.00000145  00000+0  00000+0 0  9997
2 37158  42.4550 131.7655 0746934 270.2442  85.9339  1.00280711 44272
GSAT-8 (GAGAN/PRN 127)  
1 37605U 11022A   22288.11924593  .00000084  00000+0  00000+0 0  9993
2 37605   0.0130 246.8397 0007404   1.2524 233.5491  1.00273202 41790
LUCH 5A (SDCM/PRN 140)  
1 37951U 11074B   22288.59257691 -.00000043  00000+0  00000+0 0  9990
2 37951   5.3154  95.3990 0003682  75.2374 233.9701  1.00275385 39746
SES-5 (EGNOS/PRN 136)   
1 38652U 12036A   22287.83035510  .00000033  00000+0  00000+0 0  9996
2 38652   0.0613 290.5431 0002081 276.5462 120.1808  1.00271372 31033
GSAT-10 (GAGAN/PRN 128) 
1 38779U 12051B   22287.82719194 -.00000166  00000+0  00000+0 0  9997
2 38779   0.0527 105.5788 0003799 137.2359 161.3292  1.00270707 36841
LUCH 5B (SDCM/PRN 125)  
1 38977U 12061A   22287.60296220 -.00000134  00000+0  00000+0 0  9999
2 38977   7.5476  61.6968 0005105 107.0587  55.1016  1.00270404 36724
ASTRA 5B (EGNOS/PRN 123)
1 39617U 14011B   22288.11462431  .00000154  00000+0  00000+0 0  9995
2 39617   0.0782 300.7962 0004283 259.8115 255.8228  1.00269632 31421
LUCH 5V (SDCM/PRN 141)  
1 39727U 14023A   22288.05541527 -.00000269  00000+0  00000+0 0  9995
2 39727   1.7798  76.5876 0003196 148.6335 273.0711  1.00274144549068
GSAT-15 (GAGAN/PRN 139) 
1 41028U 15065A   22288.05524087 -.00000259  00000+0  00000+0 0  9990
2 41028   0.0790  89.8022 0001851  93.5408 313.6356  1.00272520 25414
E 117 W B (WAAS/PRN 131)
1 41589U 16038B   22287.58115035 -.00000013  00000+0  00000+0 0  9997
2 41589   0.0128  74.3108 0000318  22.6846  18.3501  1.00271752 23225
SES-15 (WAAS/PRN 133)   
1 42709U 17026A   22287.72390913  .00000059  00000+0  00000+0 0  9995
2 42709   0.0340   6.1573 0000459 218.4175 290.1480  1.00268724 20690
QZS-2 (QZSS/PRN 184)    
1 42738U 17028A   22288.23616715 -.00000200  00000+0  00000+0 0  9996
2 42738  41.5801 262.4770 0746971 270.6546  74.4766  1.00254682 19694
QZS-3 (QZSS/PRN 189)    
1 42917U 17048A   22287.99010220 -.00000348  00000+0  00000+0 0  9991
2 42917   0.0565 165.1224 0002541  57.5899 284.2514  1.00275584 18925
QZS-4 (QZSS/PRN 185)    
1 42965U 17062A   22287.51792697 -.00000346  00000+0  00000+0 0  9991
2 42965  40.7398   0.5938 0749988 270.0633  77.7406  1.00274517 18355
GALAXY 30 (WAAS/PRN 135)
1 46114U 20056C   22287.72443234  .00000036  00000+0  00000+0 0  9996
2 46114   0.0176 237.6690 0002923 331.8132 309.5750  1.00271656  7848
